{"type": "FeatureCollection", "features": [ {"type": "Feature", "properties": {"norad_id": 66460, "name": "STARLINK-35424", "group": "last-30-days", "lat": 24.230496349968153, "lon": 142.89303782983748, "alt_km": 410.4871958060103, "timestamp": "2025-12-05T09:41:17.888533+00:00", "meta": {"OBJECT_NAME": "STARLINK-35424", "OBJECT_ID": "2025-262E", "EPOCH": "2025-12-04T18:00:02.000160", "MEAN_MOTION": 15.53901383, "ECCENTRICITY": 0.0001572, "INCLINATION": 42.9994, "RA_OF_ASC_NODE": 117.8471, "ARG_OF_PERICENTER": 279.7858, "MEAN_ANOMALY": 59.8344, "EPHEMERIS_TYPE": 0, "CLASSIFICATION_TYPE": "U", "NORAD_CAT_ID": 66460, "ELEMENT_SET_NO": 999, "REV_AT_EPOCH": 435, "BSTAR": -0.036008, "MEAN_MOTION_DOT": -0.02115255, "MEAN_MOTION_DDOT": 0}, "tle": {"line1": "1 66460U 25262E   25338.75002315 -.02115255  00000+0 -36008-1 0  9993", "line2": "2 66460  42.9994 117.8471 0001572 279.7858  59.8344 15.53901383  4354"}}, "geometry": {"type": "Point", "coordinates": [142.89303782983748, 24.230496349968153]}}, {"type": "Feature", "properties": {"norad_id": 66461, "name": "STARLINK-35132", "group": "last-30-days", "lat": 25.36152734651115, "lon": 144.58437642296275, "alt_km": 410.56340863559853, "timestamp": "2025-12-05T09:41:17.888542+00:00", "meta": {"OBJECT_NAME": "STARLINK-35132", "OBJECT_ID": "2025-262F", "EPOCH": "2025-12-04T18:00:02.000160", "MEAN_MOTION": 15.53907237, "ECCENTRICITY": 0.0001535, "INCLINATION": 42.9993, "RA_OF_ASC_NODE": 117.8421, "ARG_OF_PERICENTER": 272.9476, "MEAN_ANOMALY": 68.5903, "EPHEMERIS_TYPE": 0, "CLASSIFICATION_TYPE": "U", "NORAD_CAT_ID": 66461, "ELEMENT_SET_NO": 999, "REV_AT_EPOCH": 435, "BSTAR": -0.036218, "MEAN_MOTION_DOT": -0.02126597, "MEAN_MOTION_DDOT": 0}, "tle": {"line1": "1 66461U 25262F   25338.75002315 -.02126597  00000+0 -36218-1 0  9998", "line2": "2 66461  42.9993 117.8421 0001535 272.9476  68.5903 15.53907237  4351"}}, "geometry": {"type": "Point", "coordinates": [144.58437642296275, 25.36152734651115]}}, {"type": "Feature", "properties": {"norad_id": 66462, "name": "STARLINK-35499", "group": "last-30-days", "lat": 26.47208566285538, "lon": 146.30662296084452, "alt_km": 410.41997344989613, "timestamp": "2025-12-05T09:41:17.888553+00:00", "meta": {"OBJECT_NAME": "STARLINK-35499", "OBJECT_ID": "2025-262G", "EPOCH": "2025-12-04T18:00:02.000160", "MEAN_MOTION": 15.53917224, "ECCENTRICITY": 0.0001651, "INCLINATION": 42.9992, "RA_OF_ASC_NODE": 117.8373, "ARG_OF_PERICENTER": 276.2528, "MEAN_ANOMALY": 67.1966, "EPHEMERIS_TYPE": 0, "CLASSIFICATION_TYPE": "U", "NORAD_CAT_ID": 66462, "ELEMENT_SET_NO": 999, "REV_AT_EPOCH": 435, "BSTAR": -0.036512, "MEAN_MOTION_DOT": -0.02142679, "MEAN_MOTION_DDOT": 0}, "tle": {"line1": "1 66462U 25262G   25338.75002315 -.02142679  00000+0 -36512-1 0  9995", "line2": "2 66462  42.9992 117.8373 0001651 276.2528  67.1966 15.53917224  4352"}}, "geometry": {"type": "Point", "coordinates": [146.30662296084452, 26.47208566285538]}}, {"type": "Feature", "properties": {"norad_id": 66463, "name": "STARLINK-35463", "group": "last-30-days", "lat": 28.641422906492995, "lon": 149.87434824957168, "alt_km": 410.19212982163117, "timestamp": "2025-12-05T09:41:17.888564+00:00", "meta": {"OBJECT_NAME": "STARLINK-35463", "OBJECT_ID": "2025-262H", "EPOCH": "2025-12-04T18:00:02.000160", "MEAN_MOTION": 15.53910115, "ECCENTRICITY": 0.0001643, "INCLINATION": 42.9996, "RA_OF_ASC_NODE": 117.8275, "ARG_OF_PERICENTER": 274.0915, "MEAN_ANOMALY": 73.1968, "EPHEMERIS_TYPE": 0, "CLASSIFICATION_TYPE": "U", "NORAD_CAT_ID": 66463, "ELEMENT_SET_NO": 999, "REV_AT_EPOCH": 435, "BSTAR": -0.036334, "MEAN_MOTION_DOT": -0.02132909, "MEAN_MOTION_DDOT": 0}, "tle": {"line1": "1 66463U 25262H   25338.75002315 -.02132909  00000+0 -36334-1 0  9993", "line2": "2 66463  42.9996 117.8275 0001643 274.0915  73.1968 15.53910115  4356"}}, "geometry": {"type": "Point", "coordinates": [149.87434824957168, 28.641422906492995]}}, {"type": "Feature", "properties": {"norad_id": 66464, "name": "STARLINK-35435", "group": "last-30-days", "lat": 27.57059389815081, "lon": 148.0763808647389, "alt_km": 410.2446904767976, "timestamp": "2025-12-05T09:41:17.888574+00:00", "meta": {"OBJECT_NAME": "STARLINK-35435", "OBJECT_ID": "2025-262J", "EPOCH": "2025-12-04T18:00:02.000160", "MEAN_MOTION": 15.53909686, "ECCENTRICITY": 0.0001559, "INCLINATION": 42.9996, "RA_OF_ASC_NODE": 117.8323, "ARG_OF_PERICENTER": 275.3683, "MEAN_ANOMALY": 70.0022, "EPHEMERIS_TYPE": 0, "CLASSIFICATION_TYPE": "U", "NORAD_CAT_ID": 66464, "ELEMENT_SET_NO": 999, "REV_AT_EPOCH": 435, "BSTAR": -0.036295, "MEAN_MOTION_DOT": -0.02130761, "MEAN_MOTION_DDOT": 0}, "tle": {"line1": "1 66464U 25262J   25338.75002315 -.02130761  00000+0 -36295-1 0  9994", "line2": "2 66464  42.9996 117.8323 0001559 275.3683  70.0022 15.53909686  4351"}}, "geometry": {"type": "Point", "coordinates": [148.0763808647389, 27.57059389815081]}}, {"type": "Feature", "properties": {"norad_id": 66465, "name": "STARLINK-35448", "group": "last-30-days", "lat": 30.708167469637768, "lon": 153.5814640590501, "alt_km": 409.78441593270236, "timestamp": "2025-12-05T09:41:17.888585+00:00", "meta": {"OBJECT_NAME": "STARLINK-35448", "OBJECT_ID": "2025-262K", "EPOCH": "2025-12-04T18:00:02.000160", "MEAN_MOTION": 15.539165, "ECCENTRICITY": 0.0001545, "INCLINATION": 42.9998, "RA_OF_ASC_NODE": 117.8182, "ARG_OF_PERICENTER": 278.9498, "MEAN_ANOMALY": 72.1684, "EPHEMERIS_TYPE": 0, "CLASSIFICATION_TYPE": "U", "NORAD_CAT_ID": 66465, "ELEMENT_SET_NO": 999, "REV_AT_EPOCH": 435, "BSTAR": -0.036487, "MEAN_MOTION_DOT": -0.02141243, "MEAN_MOTION_DDOT": 0}, "tle": {"line1": "1 66465U 25262K   25338.75002315 -.02141243  00000+0 -36487-1 0  9995", "line2": "2 66465  42.9998 117.8182 0001545 278.9498  72.1684 15.53916500  4355"}}, "geometry": {"type": "Point", "coordinates": [153.5814640590501, 30.708167469637768]}}, {"type": "Feature", "properties": {"norad_id": 66466, "name": "STARLINK-35388", "group": "last-30-days", "lat": 31.703090999316412, "lon": 155.4973157782571, "alt_km": 409.7124100246483, "timestamp": "2025-12-05T09:41:17.888594+00:00", "meta": {"OBJECT_NAME": "STARLINK-35388", "OBJECT_ID": "2025-262L", "EPOCH": "2025-12-04T18:00:02.000160", "MEAN_MOTION": 15.53913169, "ECCENTRICITY": 0.0001574, "INCLINATION": 42.9993, "RA_OF_ASC_NODE": 117.812, "ARG_OF_PERICENTER": 277.1821, "MEAN_ANOMALY": 75.8548, "EPHEMERIS_TYPE": 0, "CLASSIFICATION_TYPE": "U", "NORAD_CAT_ID": 66466, "ELEMENT_SET_NO": 999, "REV_AT_EPOCH": 435, "BSTAR": -0.036395, "MEAN_MOTION_DOT": -0.02136244, "MEAN_MOTION_DDOT": 0}, "tle": {"line1": "1 66466U 25262L   25338.75002315 -.02136244  00000+0 -36395-1 0  9999", "line2": "2 66466  42.9993 117.8120 0001574 277.1821  75.8548 15.53913169  4353"}}, "geometry": {"type": "Point", "coordinates": [155.4973157782571, 31.703090999316412]}}, {"type": "Feature", "properties": {"norad_id": 66467, "name": "STARLINK-35682", "group": "last-30-days", "lat": 29.687775279483727, "lon": 151.7086873466333, "alt_km": 409.9877376546783, "timestamp": "2025-12-05T09:41:17.888606+00:00", "meta": {"OBJECT_NAME": "STARLINK-35682", "OBJECT_ID": "2025-262M", "EPOCH": "2025-12-04T18:00:02.000160", "MEAN_MOTION": 15.53912303, "ECCENTRICITY": 0.0001592, "INCLINATION": 42.9997, "RA_OF_ASC_NODE": 117.8227, "ARG_OF_PERICENTER": 276.4315, "MEAN_ANOMALY": 72.773, "EPHEMERIS_TYPE": 0, "CLASSIFICATION_TYPE": "U", "NORAD_CAT_ID": 66467, "ELEMENT_SET_NO": 999, "REV_AT_EPOCH": 435, "BSTAR": -0.036399, "MEAN_MOTION_DOT": -0.02136381, "MEAN_MOTION_DDOT": 0}, "tle": {"line1": "1 66467U 25262M   25338.75002315 -.02136381  00000+0 -36399-1 0  9996", "line2": "2 66467  42.9997 117.8227 0001592 276.4315  72.7730 15.53912303  4354"}}, "geometry": {"type": "Point", "coordinates": [151.7086873466333, 29.687775279483727]}}, {"type": "Feature", "properties": {"norad_id": 66468, "name": "STARLINK-35331", "group": "last-30-days", "lat": 32.66806373566659, "lon": 157.45378439137582, "alt_km": 409.61789785637484, "timestamp": "2025-12-05T09:41:17.888617+00:00", "meta": {"OBJECT_NAME": "STARLINK-35331", "OBJECT_ID": "2025-262N", "EPOCH": "2025-12-04T18:00:02.000160", "MEAN_MOTION": 15.53914733, "ECCENTRICITY": 0.0001685, "INCLINATION": 42.9998, "RA_OF_ASC_NODE": 117.8082, "ARG_OF_PERICENTER": 278.5449, "MEAN_ANOMALY": 76.4077, "EPHEMERIS_TYPE": 0, "CLASSIFICATION_TYPE": "U", "NORAD_CAT_ID": 66468, "ELEMENT_SET_NO": 999, "REV_AT_EPOCH": 435, "BSTAR": -0.036427, "MEAN_MOTION_DOT": -0.02138104, "MEAN_MOTION_DDOT": 0}, "tle": {"line1": "1 66468U 25262N   25338.75002315 -.02138104  00000+0 -36427-1 0  9994", "line2": "2 66468  42.9998 117.8082 0001685 278.5449  76.4077 15.53914733  4353"}}, "geometry": {"type": "Point", "coordinates": [157.45378439137582, 32.66806373566659]}}, {"type": "Feature", "properties": {"norad_id": 66469, "name": "STARLINK-35451", "group": "last-30-days", "lat": 35.36737155303868, "lon": 163.57624966848715, "alt_km": 409.2331891222566, "timestamp": "2025-12-05T09:41:17.888627+00:00", "meta": {"OBJECT_NAME": "STARLINK-35451", "OBJECT_ID": "2025-262P", "EPOCH": "2025-12-04T18:00:02.000160", "MEAN_MOTION": 15.53907943, "ECCENTRICITY": 0.0001768, "INCLINATION": 42.9993, "RA_OF_ASC_NODE": 117.7931, "ARG_OF_PERICENTER": 282.7019, "MEAN_ANOMALY": 78.0053, "EPHEMERIS_TYPE": 0, "CLASSIFICATION_TYPE": "U", "NORAD_CAT_ID": 66469, "ELEMENT_SET_NO": 999, "REV_AT_EPOCH": 435, "BSTAR": -0.036317, "MEAN_MOTION_DOT": -0.02131963, "MEAN_MOTION_DDOT": 0}, "tle": {"line1": "1 66469U 25262P   25338.75002315 -.02131963  00000+0 -36317-1 0  9999", "line2": "2 66469  42.9993 117.7931 0001768 282.7019  78.0053 15.53907943  4350"}}, "geometry": {"type": "Point", "coordinates": [163.57624966848715, 35.36737155303868]}}]}